     2              NAVIGATION DATA                         RINEX VERSION / TYPE
CCRINEXN V1.6.0 UX  CDDIS               05-SEP-23 10:09     PGM / RUN BY / DATE 
IGS BROADCAST EPHEMERIS FILE                                COMMENT             
    0.1583D-07  0.2235D-07 -0.1192D-06 -0.1192D-06          ION ALPHA           
    0.1126D+06  0.8192D+05 -0.1966D+06 -0.6554D+05          ION BETA            
   -0.372529029846D-08-0.976996261670D-14   405504     2278 DELTA-UTC: A0,A1,T,W
    18                                                      LEAP SECONDS        
                                                            END OF HEADER       
30 23  9  5  8  0  0.0-0.490522012115D-03 0.329691829393D-11 0.000000000000D+00
    0.146000000000D+03 0.600000000000D+01 0.499377943953D-08-0.494101549724D+00
    0.433996319771D-06 0.659081491176D-02 0.989623367786D-05 0.515376974678D+04
    0.201600000000D+06 0.104308128357D-06-0.263715308605D+01 0.577419996262D-07
    0.935749428554D+00 0.174750000000D+03-0.254663966588D+01-0.827355891265D-08
   -0.201079804352D-09 0.100000000000D+01 0.227800000000D+04 0.000000000000D+00
    0.280000000000D+01 0.000000000000D+00 0.372529029846D-08 0.146000000000D+03
    0.194418000000D+06 0.400000000000D+01 0.000000000000D+00 0.000000000000D+00
31 23  9  5  8  0  0.0-0.222922768444D-03-0.568434188608D-12 0.000000000000D+00
    0.290000000000D+02 0.137187500000D+02 0.450125892407D-08-0.125988616416D+01
    0.691041350365D-06 0.104282075772D-01 0.938959419727D-05 0.515361823654D+04
    0.201600000000D+06 0.238418579102D-06-0.262132860170D+01-0.689178705216D-07
    0.954672796171D+00 0.187000000000D+03 0.578422911647D+00-0.789140013706D-08
   -0.121790787361D-09 0.100000000000D+01 0.227800000000D+04 0.000000000000D+00
    0.200000000000D+01 0.000000000000D+00-0.130385160446D-07 0.290000000000D+02
    0.194418000000D+06 0.400000000000D+01 0.000000000000D+00 0.000000000000D+00
32 23  9  5  8  0  0.0-0.552806537598D-03-0.636646291241D-11 0.000000000000D+00
    0.650000000000D+02-0.243437500000D+02 0.457590489052D-08 0.309155056072D+01
   -0.118836760521D-05 0.696401728783D-02 0.617094337940D-05 0.515356302834D+04
    0.201600000000D+06 0.149011611938D-07 0.258349212006D+01-0.465661287308D-07
    0.960438930205D+00 0.258187500000D+03-0.221924600649D+01-0.795676000242D-08
    0.253581991279D-10 0.100000000000D+01 0.227800000000D+04 0.000000000000D+00
    0.200000000000D+01 0.000000000000D+00 0.465661287308D-09 0.650000000000D+02
    0.194418000000D+06 0.400000000000D+01 0.000000000000D+00 0.000000000000D+00
28 23  9  5  9 44 32.0-0.576581805944D-05-0.466116034659D-11 0.000000000000D+00
    0.169000000000D+03 0.937500000000D+00 0.428232123301D-08-0.884371359400D+00
    0.143423676491D-06 0.667869695462D-03 0.973790884018D-05 0.515374095917D+04
    0.207872000000D+06-0.931322574616D-08-0.267792829508D+01 0.391155481338D-07
    0.961785419023D+00 0.190750000000D+03 0.159324418591D+01-0.787068498848D-08
   -0.193579491934D-09 0.100000000000D+01 0.227800000000D+04 0.000000000000D+00
    0.200000000000D+01 0.000000000000D+00-0.977888703346D-08 0.169000000000D+03
    0.200718000000D+06 0.400000000000D+01 0.000000000000D+00 0.000000000000D+00
 5 23  9  5  9 59 44.0-0.141528900713D-03-0.147792889038D-11 0.000000000000D+00
    0.140000000000D+02-0.295625000000D+02 0.432053711057D-08-0.243454553714D+01
   -0.144168734551D-05 0.606802583206D-02 0.857748091221D-05 0.515372545242D+04
    0.208784000000D+06 0.113621354103D-06 0.149867779070D+01 0.633299350738D-07
    0.967183869079D+00 0.217500000000D+03 0.122005597826D+01-0.783782647693D-08
    0.299655338990D-09 0.100000000000D+01 0.227800000000D+04 0.000000000000D+00
    0.200000000000D+01 0.000000000000D+00-0.111758708954D-07 0.140000000000D+02
    0.207072000000D+06 0.400000000000D+01 0.000000000000D+00 0.000000000000D+00
17 23  9  5  9 59 44.0 0.723512377590D-03 0.341060513165D-12 0.000000000000D+00
    0.500000000000D+02 0.543750000000D+01 0.454054627484D-08-0.279827488514D+01
    0.379979610443D-06 0.137053626822D-01 0.267289578915D-05 0.515357591629D+04
    0.208784000000D+06 0.130385160446D-06-0.487080521636D+00 0.175088644028D-06
    0.972909094072D+00 0.330750000000D+03-0.140287068589D+01-0.810533761985D-08
    0.342871424828D-10 0.100000000000D+01 0.227800000000D+04 0.000000000000D+00
    0.200000000000D+01 0.000000000000D+00-0.111758708954D-07 0.500000000000D+02
    0.201618000000D+06 0.400000000000D+01 0.000000000000D+00 0.000000000000D+00
25 23  9  5  9 59 44.0 0.466104596853D-03 0.204636307899D-11 0.000000000000D+00
    0.320000000000D+02 0.801250000000D+02 0.478805658463D-08-0.233568385792D+00
    0.426918268204D-05 0.111246829620D-01 0.803731381893D-05 0.515368605423D+04
    0.208784000000D+06-0.130385160446D-07-0.161013448653D+01 0.175088644028D-06
    0.951976133444D+00 0.226687500000D+03 0.105314949387D+01-0.835070498324D-08
    0.175007289756D-09 0.100000000000D+01 0.227800000000D+04 0.000000000000D+00
    0.200000000000D+01 0.000000000000D+00 0.558793544769D-08 0.320000000000D+02
    0.206466000000D+06 0.400000000000D+01 0.000000000000D+00 0.000000000000D+00
27 23  9  5  9 59 44.0-0.342987477779D-04-0.636646291241D-11 0.000000000000D+00
    0.130000000000D+02 0.120312500000D+02 0.462197823823D-08-0.273045562975D+01
    0.445172190666D-06 0.115872210590D-01 0.330433249474D-05 0.515366958427D+04
    0.208784000000D+06 0.102445483208D-06-0.553467550968D+00-0.236555933952D-06
    0.966153018003D+00 0.319531250000D+03 0.742766331382D+00-0.814891086342D-08
    0.310727228751D-10 0.100000000000D+01 0.227800000000D+04 0.000000000000D+00
    0.200000000000D+01 0.000000000000D+00 0.139698386192D-08 0.130000000000D+02
    0.201618000000D+06 0.400000000000D+01 0.000000000000D+00 0.000000000000D+00
30 23  9  5  9 59 44.0-0.490497797728D-03 0.329691829393D-11 0.000000000000D+00
    0.900000000000D+01 0.850000000000D+01 0.490520432145D-08 0.553704605139D+00
    0.534579157829D-06 0.659126765095D-02 0.983476638794D-05 0.515377060127D+04
    0.208784000000D+06-0.353902578354D-07-0.263721165543D+01 0.173225998878D-06
    0.935748098762D+00 0.177218750000D+03-0.254665480562D+01-0.816391148825D-08
   -0.292869342041D-09 0.100000000000D+01 0.227800000000D+04 0.000000000000D+00
    0.200000000000D+01 0.000000000000D+00 0.372529029846D-08 0.900000000000D+01
    0.201618000000D+06 0.400000000000D+01 0.000000000000D+00 0.000000000000D+00
 1 23  9  5 10  0  0.0 0.166300218552D-03-0.102318153950D-11 0.000000000000D+00
    0.840000000000D+02-0.663750000000D+02 0.397052253106D-08 0.133083371626D+01
   -0.345520675182D-05 0.128770400770D-01 0.814907252788D-05 0.515363887215D+04
    0.208800000000D+06-0.307336449623D-06 0.516836153946D+00 0.130385160446D-06
    0.990466024520D+00 0.240968750000D+03 0.992478871060D+00-0.795104547867D-08
   -0.143577409147D-09 0.100000000000D+01 0.227800000000D+04 0.000000000000D+00
    0.280000000000D+01 0.630000000000D+02 0.512227416039D-08 0.840000000000D+02
    0.201618000000D+06 0.400000000000D+01 0.000000000000D+00 0.000000000000D+00
 2 23  9  5 10  0  0.0-0.557529740035D-03 0.432009983342D-11 0.000000000000D+00
    0.950000000000D+02-0.576250000000D+02 0.436768193148D-08-0.225894863179D+01
   -0.274553894997D-05 0.160027981037D-01 0.702589750290D-05 0.515353730392D+04
    0.208800000000D+06 0.800937414169D-07 0.416060745274D+00 0.240281224251D-06
    0.967792546867D+00 0.241156250000D+03-0.134652822764D+01-0.777782397759D-08
   -0.417874549009D-10 0.100000000000D+01 0.227800000000D+04 0.000000000000D+00
    0.200000000000D+01 0.000000000000D+00-0.176951289177D-07 0.950000000000D+02
    0.201618000000D+06 0.400000000000D+01 0.000000000000D+00 0.000000000000D+00
 3 23  9  5 10  0  0.0-0.151630956680D-03 0.198951966013D-10 0.000000000000D+00
    0.490000000000D+02-0.144062500000D+02 0.413481508879D-08 0.129535877792D+00
   -0.743195414543D-06 0.513146503363D-02 0.886246562004D-05 0.515360608101D+04
    0.208800000000D+06-0.745058059692D-07 0.154658332243D+01 0.931322574615D-07
    0.980160215767D+00 0.217218750000D+03 0.110409666050D+01-0.788925719066D-08
    0.261796619166D-09 0.100000000000D+01 0.227800000000D+04 0.000000000000D+00
    0.200000000000D+01 0.000000000000D+00 0.186264514923D-08 0.490000000000D+02
    0.204558000000D+06 0.400000000000D+01 0.000000000000D+00 0.000000000000D+00
 4 23  9  5 10  0  0.0 0.146875623614D-03 0.112549969344D-10 0.000000000000D+00
    0.200000000000D+01-0.255625000000D+02 0.467590905610D-08 0.314013771573D+01
   -0.139884650707D-05 0.252704822924D-02 0.646151602268D-05 0.515362005234D+04
    0.208800000000D+06-0.149011611938D-07 0.262732377604D+01 0.186264514923D-08
    0.963530098050D+00 0.256125000000D+03-0.303330808495D+01-0.804676375144D-08
   -0.971469037013D-10 0.100000000000D+01 0.227800000000D+04 0.000000000000D+00
    0.280000000000D+01 0.000000000000D+00-0.419095158577D-08 0.258000000000D+03
    0.201618000000D+06 0.400000000000D+01 0.000000000000D+00 0.000000000000D+00
 6 23  9  5 10  0  0.0 0.555545091629D-03-0.625277607469D-11 0.000000000000D+00
    0.250000000000D+02-0.828437500000D+02 0.390337687703D-08 0.154854372775D+01
   -0.421889126301D-05 0.273712316994D-02 0.764615833759D-05 0.515373801041D+04
    0.208800000000D+06 0.409781932831D-07 0.508502881026D+00-0.335276126862D-07
    0.989645881923D+00 0.243750000000D+03-0.800635125209D+00-0.780282501898D-08
   -0.216437586923D-09 0.100000000000D+01 0.227800000000D+04 0.000000000000D+00
    0.200000000000D+01 0.000000000000D+00 0.372529029846D-08 0.250000000000D+02
    0.201618000000D+06 0.400000000000D+01 0.000000000000D+00 0.000000000000D+00
